#aV2020  9 28  0  0  0.00000000     288 DD+AD WGS84 FIT  NGA
## 2125  86400.00000000   300.00000000 59120 0.0000000000000
+   31     1  2  3  4  5  6  7  8  9 10 11 12 13 15 16 17 18
+         19 20 21 22 23 24 25 26 27 28 29 30 31 32  0  0  0
+          0  0  0  0  0  0  0  0  0  0  0  0  0  0  0  0  0
+          0  0  0  0  0  0  0  0  0  0  0  0  0  0  0  0  0
+          0  0  0  0  0  0  0  0  0  0  0  0  0  0  0  0  0
++         2  2  2  2  2  2  2  2  2  2  2  2  2  2  2  2  2
++         2  2  2  2  2  2  2  2  2  2  2  2  2  2  0  0  0
++         0  0  0  0  0  0  0  0  0  0  0  0  0  0  0  0  0
++         0  0  0  0  0  0  0  0  0  0  0  0  0  0  0  0  0
++         0  0  0  0  0  0  0  0  0  0  0  0  0  0  0  0  0
%c cc cc ccc ccc cccc cccc cccc cccc ccccc ccccc ccccc ccccc
%c cc cc ccc ccc cccc cccc cccc cccc ccccc ccccc ccccc ccccc
%f  0.0000000  0.000000000  0.00000000000  0.000000000000000
%f  0.0000000  0.000000000  0.00000000000  0.000000000000000
%i    0    0    0    0      0      0      0      0         0
%i    0    0    0    0      0      0      0      0         0
/*      NGA, ST. LOUIS,MO.                                  
/*   EPHEMERIS COMPUTED FROM 2 DAYS OF DATA                 
/*   EPOCHA v5 SMOOTHER                                     
/*   G1762 IERS2010 SATAF SATAPC                            
*  2020  9 28  5  5  0.00000000
P  1   7737.514871 -18276.508039 -17722.285245     35.158713                    
V  1  19789.287632  -9965.917786  19492.220827     -0.011853                    
P  2 -21645.811667  15357.522060    289.820585   -522.385058                    
V  2  -1311.521764  -2578.116950 -31769.045037     -0.051003                    
P  3  -3603.345759 -17583.407152 -19691.864114   -311.329241                    
V  3  22163.977137  11135.115195 -13958.484656     -0.105121                    
P  4    647.195294 -26529.522716   -239.794689   -139.561455                    
V  4   2857.355414    364.450665 -31774.368532     -0.040492                    
P  5 -16989.812385   6601.027221  19230.790879    -22.114310                    
V  5 -21356.008026 -12496.347477 -14277.215422     -0.008992                    
P  6 -22788.917644   3325.396917 -13209.880220   -329.269556                    
V  6  13539.624852 -10113.495972 -25764.382448     -0.029545                    
P  7 -10060.870327 -12058.735487  21774.652167   -381.919903                    
V  7  23187.932272 -13596.866420   2748.416424     -0.080946                    
P  8   6612.154302 -23268.213228  10669.884535    -49.538700                    
V  8   2838.580814  13528.202301  28030.129372     -0.014075                    
P  9  -8372.989326 -22738.074573  10800.566574   -292.444897                    
V  9   2250.809062 -13896.286229 -27379.284521     -0.054806                    
P 10  23997.864861  11443.726744  -2365.714468   -465.929463                    
V 10   1528.586257   3609.076522  31527.790718     -0.096934                    
P 11  10339.368172 -24206.764903  -5234.692729   -152.108994                    
V 11   6423.782445  -3128.317452  29507.890693      0.105471                    
P 12    671.482986  17083.760468 -20598.532491     61.375620                    
V 12 -21773.682057 -13381.857939 -11797.900447     -0.050750                    
P 13 -12963.899571  16600.789221  15985.805616     49.455198                    
V 13    488.125428 -20638.786008  21763.065707      0.036202                    
P 15  -4039.973359  24199.425837   9350.621384   -200.673414                    
V 15  -5318.827384 -11962.255232  28035.720518      0.025809                    
P 16  16040.306494  -5658.269968  20299.440226   -215.017329                    
V 16  21165.575042  15288.101819 -11893.908203     -0.051324                    
P 17 -13711.744936  -7424.665364 -21082.349506    332.140139                    
V 17   1799.434267 -27650.728821   8359.218712      0.052188                    
P 18  10493.314074  11272.724013  21631.509076    298.008063                    
V 18 -23742.197065  13834.869136   4257.502142      0.065161                    
P 19 -14949.338424    502.124413 -22236.297894    -99.031649                    
V 19   2282.284410 -27376.566305  -2247.582676      0.050416                    
P 20  19678.997230  15230.905815   9552.311844    526.589653                    
V 20 -12488.436851  -1566.988312  27748.810056     -0.001435                    
P 21  21975.778289 -14615.945444    780.901509     51.921530                    
V 21   1781.375985   2763.529703  31806.260724      0.040924                    
P 22   4565.166189 -15158.941644 -21137.050448   -749.657589                    
V 22  25130.139799  10939.571736  -2246.337957      0.042504                    
P 23  19837.624730  16122.062131   7211.378459     75.590578                    
V 23  -9365.530723  -1947.101650  29965.254478      0.075234                    
P 24  -9595.275130  19819.900627 -14784.623454    -19.109910                    
V 24 -16939.534290   8253.082330  22756.546209     -0.005155                    
P 25  12998.885418  18600.913189 -14252.740997     55.524596                    
V 25 -16243.713523  -6979.869785 -24072.376126      0.056443                    
P 26  23780.794906   2587.488498  11760.190014    286.218935                    
V 26  12105.547887   9122.470969 -26178.293613      0.063423                    
P 27  12323.039750 -14027.555678  18605.487473   -405.889612                    
V 27   1794.695426  23983.219387  17089.918732     -0.088404                    
P 28 -22815.377162 -12777.161442  -3545.896117    673.901090                    
V 28  -2892.328680  -5042.147956  31765.691197     -0.042876                    
P 29   4298.399851  24735.986738   8555.312595   -204.088942                    
V 29  -2521.449049  10780.825213 -29809.558276     -0.080750                    
P 30 -18803.607489  -4868.040630  18257.729257   -309.950689                    
V 30  19329.070858 -12731.194885  16341.383935     -0.070359                    
P 31  23936.415362  -4385.790855 -11227.767744    -71.486217                    
V 31 -11162.322514   8762.485776 -26891.325166     -0.023911                    
P 32  14935.818574   6149.821694 -21021.883485    351.543987                    
V 32    -65.442687  26887.125248   7635.043874      0.043858                    
EOF
